OCEANSAT-2              
1 35931U 09051A   26188.50157766 -.00000186  00000+0 -10156-3 0  9990
2 35931  98.2318 173.3250 0016824 175.8369 184.2941 13.99657568882179
WORLDVIEW-2 (WV-2)      
1 35946U 09055A   26188.48288931  .00000083  00000+0  41892-4 0  9992
2 35946  98.4759 261.6558 0004964 148.9192 211.2289 14.37905501878565
SMOS                    
1 36036U 09059A   26187.99570619  .00000205  00000+0  79272-4 0  9998
2 36036  98.4428  15.0405 0001301  86.7559 273.3778 14.39783373876304
YAOGAN-7                
1 36110U 09069A   26188.12767834  .00000396  00000+0  61972-4 0  9994
2 36110  98.0047  73.8694 0024056 338.2842  21.7346 14.78030223892579
TANDEM-X                
1 36605U 10030A   26187.49113280  .00000441  00000+0  24210-4 0  9997
2 36605  97.4457 194.9233 0001853  95.7650 264.3796 15.19153296889574
CARTOSAT-2B             
1 36795U 10035A   26188.50550404  .00001207  00000+0  17190-3 0  9997
2 36795  97.9938 238.9247 0012351 121.3348 238.9073 14.78613511862854
YAOGAN-10               
1 36834U 10038A   26188.56738028  .00001821  00000+0  21761-3 0  9991
2 36834  97.8970 211.8090 0001644  84.6554  13.8327 14.85414675860232
COSMO-SKYMED 4          
1 37216U 10060A   26188.49435813  .00000233  00000+0  35847-4 0  9996
2 37216  97.8897  11.7999 0001504  86.8511 273.2874 14.82163147847575
RESOURCESAT-2           
1 37387U 11015A   26188.50003616  .00000050  00000+0  42825-4 0  9991
2 37387  98.7635 255.8007 0011131 192.9948 167.0944 14.21604835789069
HAIYANG-2A              
1 37781U 11043A   26188.57219649  .00000015  00000+0  62281-4 0  9991
2 37781  99.3406 190.7877 0003837  52.2047 307.9449 13.73675786749457
RASAT                   
1 37791U 11044D   26188.55467689  .00000465  00000+0  89005-4 0  9992
2 37791  98.0576 279.6416 0021678 125.6053 293.7283 14.68187991796173
SRMSAT                  
1 37841U 11058D   26188.51395409  .00000364  00000+0  53720-4 0  9992
2 37841  19.9725 296.4406 0011879  67.5382  21.1361 14.11579854760693
PLEIADES 1A             
1 38012U 11076F   26188.51316319  .00000462  00000+0  10915-3 0  9993
2 38012  98.1965 263.3429 0001746  83.7603  44.4509 14.58545105774954
ZIYUAN 1-02C (ZY 1-02C) 
1 38038U 11079A   26188.53836104  .00000622  00000+0  21893-3 0  9990
2 38038  98.4058 255.4213 0005242 242.0228 226.7866 14.38232837762130
ARIRANG-3 (KOMPSAT-3)   
1 38338U 12025B   26188.49333066  .00000347  00000+0  78130-4 0  9990
2 38338  98.1180 145.6040 0006606  58.7079 301.4769 14.62224419754313
EXACTVIEW-1 (ADS-1B)    
1 38709U 12039C   26188.25223997  .00000101  00000+0  62814-4 0  9992
2 38709  98.9797 306.0977 0011907 112.2478 247.9964 14.24990589725560
SPOT 6                  
1 38755U 12047A   26188.50408862  .00000613  00000+0  14185-3 0  9991
2 38755  98.2105 255.5748 0001165  78.3762 281.7568 14.58537403736011
PLEIADES 1B             
1 39019U 12068A   26188.52267219  .00000541  00000+0  12615-3 0  9995
2 39019  98.1936 263.2945 0001651  81.9239 278.2148 14.58574964723812
GOKTURK 2               
1 39030U 12073A   26188.49237670  .00000010  00000+0  83693-5 0  9995
2 39030  97.6816  24.9049 0000918  73.5340 286.5971 14.75562505727501
LANDSAT 8               
1 39084U 13008A   26188.48839905  .00000253  00000+0  66360-4 0  9991
2 39084  98.2293 258.3817 0001349  94.4239 265.7114 14.57108316700853
SARAL                   
1 39086U 13009A   26188.50115427  .00000061  00000+0  38260-4 0  9998
2 39086  98.5554  14.8114 0001232 188.6613 171.4550 14.32894390698519
GAOFEN-1                
1 39150U 13018A   26188.52880788  .00000601  00000+0  93350-4 0  9992
2 39150  97.9082 260.1832 0016388 196.1803 163.8886 14.76514376711240
VNREDSAT 1              
1 39160U 13021B   26188.51268664  .00000651  00000+0  13035-3 0  9995
2 39160  97.9065 241.1484 0001675  81.5002 278.6392 14.64879930703262
ARIRANG-5 (KOMPSAT-5)   
1 39227U 13042A   26188.51758606  .00001261  00000+0  94343-4 0  9992
2 39227  97.6218  14.9317 0005337  75.9017 284.2802 15.04515441706919
SKYSAT-A                
1 39418U 13066C   26188.09773233  .00002472  00000+0  14268-3 0  9998
2 39418  97.3802 236.8604 0019883 243.0841 116.8359 15.13085318691493
DUBAISAT-2              
1 39419U 13066D   26188.54382682  .00003404  00000+0  21116-3 0  9999
2 39419  97.4575 178.1574 0010062 333.2957  26.7753 15.10340319689469
GPM-CORE                
1 39574U 14009C   26188.47276872  .00004614  00000+0  10264-3 0  9990
2 39574  64.9704 240.1676 0011123 259.4987 100.4900 15.44983017700944
SENTINEL-1A             
1 39634U 14016A   26188.52747846  .00000233  00000+0  59131-4 0  9995
2 39634  98.1784 195.7634 0001418  85.4106 274.7256 14.59201095652986
KAZEOSAT 1              
1 39731U 14024A   26188.49023227  .00000349  00000+0  11933-3 0  9993
2 39731  98.3193 260.4324 0001304  80.4188 279.7149 14.42036242641486
ALOS-2                  
1 39766U 14029A   26188.56429495  .00001714  00000+0  23630-3 0  9995
2 39766  97.9222 285.4371 0001597  91.7071 268.4323 14.79472475654598
KAZEOSAT 2              
1 40010U 14033A   26188.50534333  .00000725  00000+0  89806-4 0  9995
2 40010  97.5399  27.0424 0007059 249.9577 110.0879 14.85494596651971
