OBJECT_NAME,OBJECT_ID,EPOCH,MEAN_MOTION,ECCENTRICITY,INCLINATION,RA_OF_ASC_NODE,ARG_OF_PERICENTER,MEAN_ANOMALY,EPHEMERIS_TYPE,CLASSIFICATION_TYPE,NORAD_CAT_ID,ELEMENT_SET_NO,REV_AT_EPOCH,BSTAR,MEAN_MOTION_DOT,MEAN_MOTION_DDOT
OCEANSAT-2,2009-051A,2026-07-07T12:02:16.309824,13.99657568,.0016824,98.2318,173.3250,175.8369,184.2941,0,U,35931,999,88217,-.10156E-3,-.186E-5,0
WORLDVIEW-2 (WV-2),2009-055A,2026-07-07T11:35:21.636384,14.37905501,.0004964,98.4759,261.6558,148.9192,211.2289,0,U,35946,999,87856,.41892E-4,.83E-6,0
SMOS,2009-059A,2026-07-06T23:53:49.014816,14.39783373,.0001301,98.4428,15.0405,86.7559,273.3778,0,U,36036,999,87630,.79272E-4,.205E-5,0
YAOGAN-7,2009-069A,2026-07-07T03:03:51.408576,14.78030223,.0024056,98.0047,73.8694,338.2842,21.7346,0,U,36110,999,89257,.61972E-4,.396E-5,0
TANDEM-X,2010-030A,2026-07-06T11:47:13.873920,15.19153296,.00018532,97.4457,194.9233,95.7650,264.3796,0,U,36605,999,88957,.24210035E-4,.441E-5,0
CARTOSAT-2B,2010-035A,2026-07-07T12:07:55.549056,14.78613511,.0012351,97.9938,238.9247,121.3348,238.9073,0,U,36795,999,86285,.1719E-3,.1207E-4,0
YAOGAN-10,2010-038A,2026-07-07T13:37:01.656192,14.85414675,.0001644,97.8970,211.8090,84.6554,13.8327,0,U,36834,999,86023,.21761E-3,.1821E-4,0
COSMO-SKYMED 4,2010-060A,2026-07-07T11:51:52.542432,14.82163147,.0001504,97.8897,11.7999,86.8511,273.2874,0,U,37216,999,84757,.35847E-4,.233E-5,0
RESOURCESAT-2,2011-015A,2026-07-07T12:00:03.124224,14.21604835,.0011131,98.7635,255.8007,192.9948,167.0944,0,U,37387,999,78906,.42825E-4,.5E-6,0
HAIYANG-2A,2011-043A,2026-07-07T13:43:57.776736,13.73675786,.0003837,99.3406,190.7877,52.2047,307.9449,0,U,37781,999,74945,.62281E-4,.15E-6,0
RASAT,2011-044D,2026-07-07T13:18:44.083296,14.68187991,.0021678,98.0576,279.6416,125.6053,293.7283,0,U,37791,999,79617,.89005E-4,.465E-5,0
SRMSAT,2011-058D,2026-07-07T12:20:05.633376,14.11579854,.0011879,19.9725,296.4406,67.5382,21.1361,0,U,37841,999,76069,.5372E-4,.364E-5,0
PLEIADES 1A,2011-076F,2026-07-07T12:18:57.299616,14.58545105,.0001746,98.1965,263.3429,83.7603,44.4509,0,U,38012,999,77495,.10915E-3,.462E-5,0
ZIYUAN 1-02C (ZY 1-02C),2011-079A,2026-07-07T12:55:14.393856,14.38232837,.0005242,98.4058,255.4213,242.0228,226.7866,0,U,38038,999,76213,.21893E-3,.622E-5,0
ARIRANG-3 (KOMPSAT-3),2012-025B,2026-07-07T11:50:23.769024,14.62224419,.0006606,98.1180,145.6040,58.7079,301.4769,0,U,38338,999,75431,.7813E-4,.347E-5,0
EXACTVIEW-1 (ADS-1B),2012-039C,2026-07-07T06:03:13.533408,14.24990589,.0011907,98.9797,306.0977,112.2478,247.9964,0,U,38709,999,72556,.62814E-4,.101E-5,0
SPOT 6,2012-047A,2026-07-07T12:05:53.256768,14.58537403,.0001165,98.2105,255.5748,78.3762,281.7568,0,U,38755,999,73601,.14185E-3,.613E-5,0
PLEIADES 1B,2012-068A,2026-07-07T12:32:38.877216,14.58574964,.0001651,98.1936,263.2945,81.9239,278.2148,0,U,39019,999,72381,.12615E-3,.541E-5,0
GOKTURK 2,2012-073A,2026-07-07T11:49:01.346880,14.75562505,.0000918,97.6816,24.9049,73.5340,286.5971,0,U,39030,999,72750,.83693E-5,.1E-6,0
LANDSAT 8,2013-008A,2026-07-07T11:43:17.677920,14.57108316,.0001349,98.2293,258.3817,94.4239,265.7114,0,U,39084,999,70085,.6636E-4,.253E-5,0
SARAL,2013-009A,2026-07-07T12:01:39.728928,14.32894390,.0001232,98.5554,14.8114,188.6613,171.4550,0,U,39086,999,69851,.3826E-4,.61E-6,0
GAOFEN-1,2013-018A,2026-07-07T12:41:29.000832,14.76514376,.0016388,97.9082,260.1832,196.1803,163.8886,0,U,39150,999,71124,.9335E-4,.601E-5,0
VNREDSAT 1,2013-021B,2026-07-07T12:18:16.125696,14.64879930,.0001675,97.9065,241.1484,81.5002,278.6392,0,U,39160,999,70326,.13035E-3,.651E-5,0
ARIRANG-5 (KOMPSAT-5),2013-042A,2026-07-07T12:25:19.435584,15.04515441,.0005337,97.6218,14.9317,75.9017,284.2802,0,U,39227,999,70691,.94343E-4,.1261E-4,0
SKYSAT-A,2013-066C,2026-07-07T02:20:44.073312,15.13085318,.0019883,97.3802,236.8604,243.0841,116.8359,0,U,39418,999,69149,.14268E-3,.2472E-4,0
DUBAISAT-2,2013-066D,2026-07-07T13:03:06.637248,15.10340319,.0010062,97.4575,178.1574,333.2957,26.7753,0,U,39419,999,68946,.21116E-3,.3404E-4,0
GPM-CORE,2014-009C,2026-07-07T11:20:47.217408,15.44983017,.0011123,64.9704,240.1676,259.4987,100.4900,0,U,39574,999,70094,.10264E-3,.4614E-4,0
SENTINEL-1A,2014-016A,2026-07-07T12:39:34.138944,14.59201095,.0001418,98.1784,195.7634,85.4106,274.7256,0,U,39634,999,65298,.59131E-4,.233E-5,0
KAZEOSAT 1,2014-024A,2026-07-07T11:45:56.068128,14.42036242,.0001304,98.3193,260.4324,80.4188,279.7149,0,U,39731,999,64148,.11933E-3,.349E-5,0
ALOS-2,2014-029A,2026-07-07T13:32:35.083680,14.79472475,.0001597,97.9222,285.4371,91.7071,268.4323,0,U,39766,999,65459,.2363E-3,.1714E-4,0
KAZEOSAT 2,2014-033A,2026-07-07T12:07:41.663712,14.85494596,.0007059,97.5399,27.0424,249.9577,110.0879,0,U,40010,999,65197,.89806E-4,.725E-5,0
